IRIDIUM 113             
1 42803U 17039A   26197.75244395  .00000055  00000+0  12403-4 0  9994
2 42803  86.3992 309.8222 0002122  92.7635 267.3803 14.34217524475425
NORSAT 2                
1 42828U 17042D   26197.47759345  .00005428  00000+0  23750-3 0  9995
2 42828  97.4055  10.4665 0008155 312.9114  47.1438 15.22441762492194
TECHNOSAT               
1 42829U 17042E   26197.43622443  .00001542  00000+0  11220-3 0  9992
2 42829  97.4319 353.9886 0017314 359.5045   0.6162 15.05115319491100
FLYING LAPTOP           
1 42831U 17042G   26197.84631537  .00002188  00000+0  17382-3 0  9996
2 42831  97.4812 352.2646 0019640  27.2468 332.9783 15.01320334490907
WNISAT 1R               
1 42835U 17042L   26197.40813212  .00000345  00000+0  30817-4 0  9996
2 42835  97.4820 352.4866 0010712  60.9118 299.3178 15.01859402490898
LEMUR-2-GREENBERG       
1 42837U 17042N   26197.48372277  .00009505  00000+0  30816-3 0  9992
2 42837  97.3829  17.9935 0007251 254.1864 105.8578 15.32177816492878
LEMUR-2-FURIAUS         
1 42840U 17042R   26197.49750942  .00010084  00000+0  33733-3 0  9991
2 42840  97.3778  15.8960 0005913 324.3797  35.7049 15.31157870492699
CORVUS BC2              
1 42846U 17042X   26197.42227782  .00001056  00000+0  75471-4 0  9996
2 42846  97.4091 357.6431 0013332  19.0018 341.1704 15.06459280491460
CORVUS BC1              
1 42847U 17042Y   26197.41367348  .00001369  00000+0  96311-4 0  9992
2 42847  97.4121 358.4677 0011529 355.8065   4.3064 15.06623094491491
VRSS-2                  
1 42954U 17060A   26197.84302804 -.00000115  00000+0 -82944-5 0  9992
2 42954  97.6495 234.2326 0017304   8.4005 351.7495 14.81237012472848
MOHAMMED VI-A           
1 43005U 17070A   26197.88184794 -.00000124  00000+0 -10364-4 0  9997
2 43005  97.9552 269.8022 0001222  96.1583 263.9767 14.77101846468365
FENGYUN 3D              
1 43010U 17072A   26197.88765870 -.00000300  00000+0 -12004-3 0  9993
2 43010  99.0145 172.8495 0001440  11.0136 349.1070 14.19744012449201
NOAA 20 (JPSS-1)        
1 43013U 17073A   26197.81701927  .00000014  00000+0  27457-4 0  9992
2 43013  98.7772 137.0172 0001448 122.8399 237.2916 14.19516648448679
MAKERSAT 0              
1 43016U 17073D   26197.43085670  .00011478  00000+0  30313-3 0  9993
2 43016  97.4577  80.1901 0105507 167.8681 192.5141 15.33035166470949
RADFXSAT (FOX-1B)       
1 43017U 17073E   26197.57399529  .00004454  00000+0  19535-3 0  9999
2 43017  97.4661  64.1900 0148312 226.6684 132.2108 15.13073089469837
JILIN-1 04              
1 43022U 17074A   26197.85632249  .00008584  00000+0  19570-3 0  9993
2 43022  97.4883 308.2782 0005241  96.0121 264.1724 15.43160325478840
JILIN-1 05              
1 43023U 17074B   26197.79943288  .00004638  00000+0  14207-3 0  9993
2 43023  97.4885 304.3654 0006515 120.2306 239.9583 15.34300759478545
JILIN-1 06              
1 43024U 17074C   26197.84087297  .00003486  00000+0  10834-3 0  9991
2 43024  97.4810 301.3770 0008185 129.1949 231.0022 15.34007659478382
IRIDIUM 116             
1 43072U 17083C   26197.37823008  .00000121  00000+0  36226-4 0  9997
2 43072  86.3985 309.7989 0002490  98.0794 262.0685 14.34217961448355
IRIDIUM 130             
1 43073U 17083D   26197.55582615  .00000137  00000+0  42023-4 0  9993
2 43073  86.3994 310.0029 0002294 100.7313 259.4141 14.34218258448320
LKW-2                   
1 43080U 17084A   26197.85393980  .00002286  00000+0  89667-4 0  9992
2 43080  97.1172 236.2675 0003686 115.9251 244.2369 15.26699278476217
SUPERVIEW-1 03          
1 43099U 18002A   26197.86475319  .00011230  00000+0  27058-3 0  9995
2 43099  97.3130 282.6758 0046838  75.2863 285.3568 15.40251049472931
CARTOSAT-2F             
1 43111U 18004A   26197.84751760  .00001520  00000+0  75535-4 0  9992
2 43111  97.4769 257.1900 0002399 130.3480 229.7964 15.19177939471834
LKW-3                   
1 43146U 18006A   26197.83487977  .00011356  00000+0  32858-3 0  9995
2 43146  97.6638 359.5829 0003161 174.1955 185.9325 15.35777764473260
ASNARO-2                
1 43152U 18007A   26197.82915446  .00004796  00000+0  21058-3 0  9999
2 43152  97.3973 204.2936 0001773  90.6134 269.5306 15.22402253471922
JILIN-1 07              
1 43159U 18008E   26197.81980909  .00004880  00000+0  14512-3 0  9993
2 43159  97.1764 216.9663 0006582 321.0724  39.0045 15.35180377469540
JILIN-1 08              
1 43160U 18008F   26197.84107097  .00003275  00000+0  10181-3 0  9992
2 43160  97.1802 216.2696 0005112 346.2202  13.8901 15.34021183469495
S-NET D                 
1 43186U 18014G   26197.81839940  .00002695  00000+0  14008-3 0  9990
2 43186  97.5330 102.4251 0006210 277.8290  82.2238 15.16926334463255
S-NET B                 
1 43187U 18014H   26197.63253731  .00002486  00000+0  12959-3 0  9990
2 43187  97.5335 102.2279 0006804 272.4340  87.6114 15.16894772463224
S-NET A                 
1 43188U 18014J   26197.68518492  .00002666  00000+0  13861-3 0  9997
2 43188  97.5345 102.4949 0006706 273.3963  86.6503 15.16933876463235
