OBJECT_NAME,OBJECT_ID,EPOCH,MEAN_MOTION,ECCENTRICITY,INCLINATION,RA_OF_ASC_NODE,ARG_OF_PERICENTER,MEAN_ANOMALY,EPHEMERIS_TYPE,CLASSIFICATION_TYPE,NORAD_CAT_ID,ELEMENT_SET_NO,REV_AT_EPOCH,BSTAR,MEAN_MOTION_DOT,MEAN_MOTION_DDOT
IRIDIUM 113,2017-039A,2026-07-16T18:03:31.157280,14.34217524,.0002122,86.3992,309.8222,92.7635,267.3803,0,U,42803,999,47542,.12403E-4,.55E-6,0
NORSAT 2,2017-042D,2026-07-16T11:27:44.074080,15.22441762,.0008155,97.4055,10.4665,312.9114,47.1438,0,U,42828,999,49219,.2375E-3,.5428E-4,0
TECHNOSAT,2017-042E,2026-07-16T10:28:09.790752,15.05115319,.0017314,97.4319,353.9886,359.5045,0.6162,0,U,42829,999,49110,.1122E-3,.1542E-4,0
FLYING LAPTOP,2017-042G,2026-07-16T20:18:41.647968,15.01320334,.001964,97.4812,352.2646,27.2468,332.9783,0,U,42831,999,49090,.17382E-3,.2188E-4,0
WNISAT 1R,2017-042L,2026-07-16T09:47:42.615168,15.01859402,.0010712,97.4820,352.4866,60.9118,299.3178,0,U,42835,999,49089,.30817E-4,.345E-5,0
LEMUR-2-GREENBERG,2017-042N,2026-07-16T11:36:33.647328,15.32177816,.0007251,97.3829,17.9935,254.1864,105.8578,0,U,42837,999,49287,.30816E-3,.9505E-4,0
LEMUR-2-FURIAUS,2017-042R,2026-07-16T11:56:24.813888,15.31157870,.0005913,97.3778,15.8960,324.3797,35.7049,0,U,42840,999,49269,.33733E-3,.10084E-3,0
CORVUS BC2,2017-042X,2026-07-16T10:08:04.803648,15.06459280,.0013332,97.4091,357.6431,19.0018,341.1704,0,U,42846,999,49146,.75471E-4,.1056E-4,0
CORVUS BC1,2017-042Y,2026-07-16T09:55:41.388672,15.06623094,.0011529,97.4121,358.4677,355.8065,4.3064,0,U,42847,999,49149,.96311E-4,.1369E-4,0
VRSS-2,2017-060A,2026-07-16T20:13:57.622656,14.81237012,.0017304,97.6495,234.2326,8.4005,351.7495,0,U,42954,999,47284,-.82944E-5,-.115E-5,0
MOHAMMED VI-A,2017-070A,2026-07-16T21:09:51.662016,14.77101846,.0001222,97.9552,269.8022,96.1583,263.9767,0,U,43005,999,46836,-.10364E-4,-.124E-5,0
FENGYUN 3D,2017-072A,2026-07-16T21:18:13.711680,14.19744012,.000144,99.0145,172.8495,11.0136,349.1070,0,U,43010,999,44920,-.12004E-3,-.3E-5,0
NOAA 20 (JPSS-1),2017-073A,2026-07-16T19:36:30.464928,14.19516648,.0001448,98.7772,137.0172,122.8399,237.2916,0,U,43013,999,44867,.27457E-4,.14E-6,0
MAKERSAT 0,2017-073D,2026-07-16T10:20:26.018880,15.33035166,.0105507,97.4577,80.1901,167.8681,192.5141,0,U,43016,999,47094,.30313E-3,.11478E-3,0
RADFXSAT (FOX-1B),2017-073E,2026-07-16T13:46:33.193056,15.13073089,.0148312,97.4661,64.1900,226.6684,132.2108,0,U,43017,999,46983,.19535E-3,.4454E-4,0
JILIN-1 04,2017-074A,2026-07-16T20:33:06.263136,15.43160325,.0005241,97.4883,308.2782,96.0121,264.1724,0,U,43022,999,47884,.1957E-3,.8584E-4,0
JILIN-1 05,2017-074B,2026-07-16T19:11:11.000832,15.34300759,.0006515,97.4885,304.3654,120.2306,239.9583,0,U,43023,999,47854,.14207E-3,.4638E-4,0
JILIN-1 06,2017-074C,2026-07-16T20:10:51.424608,15.34007659,.0008185,97.4810,301.3770,129.1949,231.0022,0,U,43024,999,47838,.10834E-3,.3486E-4,0
IRIDIUM 116,2017-083C,2026-07-16T09:04:39.078912,14.34217961,.000249,86.3985,309.7989,98.0794,262.0685,0,U,43072,999,44835,.36226E-4,.121E-5,0
IRIDIUM 130,2017-083D,2026-07-16T13:20:23.379360,14.34218258,.0002294,86.3994,310.0029,100.7313,259.4141,0,U,43073,999,44832,.42023E-4,.137E-5,0
LKW-2,2017-084A,2026-07-16T20:29:40.398720,15.26699278,.0003686,97.1172,236.2675,115.9251,244.2369,0,U,43080,999,47621,.89667E-4,.2286E-4,0
SUPERVIEW-1 03,2018-002A,2026-07-16T20:45:14.675616,15.40251049,.0046838,97.3130,282.6758,75.2863,285.3568,0,U,43099,999,47293,.27058E-3,.1123E-3,0
CARTOSAT-2F,2018-004A,2026-07-16T20:20:25.520640,15.19177939,.0002399,97.4769,257.1900,130.3480,229.7964,0,U,43111,999,47183,.75535E-4,.152E-4,0
LKW-3,2018-006A,2026-07-16T20:02:13.612128,15.35777764,.0003161,97.6638,359.5829,174.1955,185.9325,0,U,43146,999,47326,.32858E-3,.11356E-3,0
ASNARO-2,2018-007A,2026-07-16T19:53:58.945344,15.22402253,.0001773,97.3973,204.2936,90.6134,269.5306,0,U,43152,999,47192,.21058E-3,.4796E-4,0
JILIN-1 07,2018-008E,2026-07-16T19:40:31.505376,15.35180377,.0006582,97.1764,216.9663,321.0724,39.0045,0,U,43159,999,46954,.14512E-3,.488E-4,0
JILIN-1 08,2018-008F,2026-07-16T20:11:08.531808,15.34021183,.0005112,97.1802,216.2696,346.2202,13.8901,0,U,43160,999,46949,.10181E-3,.3275E-4,0
S-NET D,2018-014G,2026-07-16T19:38:29.708160,15.16926334,.000621,97.5330,102.4251,277.8290,82.2238,0,U,43186,999,46325,.14008E-3,.2695E-4,0
S-NET B,2018-014H,2026-07-16T15:10:51.223584,15.16894772,.0006804,97.5335,102.2279,272.4340,87.6114,0,U,43187,999,46322,.12959E-3,.2486E-4,0
S-NET A,2018-014J,2026-07-16T16:26:39.977088,15.16933876,.0006706,97.5345,102.4949,273.3963,86.6503,0,U,43188,999,46323,.13861E-3,.2666E-4,0
